[{"OBJECT_NAME":"FALCON EYE 2","OBJECT_ID":"2020-090A","EPOCH":"2026-03-09T02:26:19.073760","MEAN_MOTION":14.84956326,"ECCENTRICITY":0.00011533,"INCLINATION":97.8521,"RA_OF_ASC_NODE":144.2551,"ARG_OF_PERICENTER":93.9066,"MEAN_ANOMALY":266.228,"EPHEMERIS_TYPE":0,"CLASSIFICATION_TYPE":"U","NORAD_CAT_ID":47226,"ELEMENT_SET_NO":999,"REV_AT_EPOCH":28538,"BSTAR":0.0002554448,"MEAN_MOTION_DOT":2.123e-5,"MEAN_MOTION_DDOT":0},{"OBJECT_NAME":"ALOS DEB","OBJECT_ID":"2006-002Z","EPOCH":"2026-03-09T22:11:13.440768","MEAN_MOTION":14.85239125,"ECCENTRICITY":0.00017682,"INCLINATION":98.1894,"RA_OF_ASC_NODE":54.0256,"ARG_OF_PERICENTER":103.8997,"MEAN_ANOMALY":310.4745,"EPHEMERIS_TYPE":0,"CLASSIFICATION_TYPE":"U","NORAD_CAT_ID":35418,"ELEMENT_SET_NO":999,"REV_AT_EPOCH":1930,"BSTAR":0.00074748634,"MEAN_MOTION_DOT":6.359e-5,"MEAN_MOTION_DDOT":0}]
